OBJECT_NAME,OBJECT_ID,EPOCH,MEAN_MOTION,ECCENTRICITY,INCLINATION,RA_OF_ASC_NODE,ARG_OF_PERICENTER,MEAN_ANOMALY,EPHEMERIS_TYPE,CLASSIFICATION_TYPE,NORAD_CAT_ID,ELEMENT_SET_NO,REV_AT_EPOCH,BSTAR,MEAN_MOTION_DOT,MEAN_MOTION_DDOT
ONEWEB-0522,2022-138AD,2026-06-30T09:51:00.747648,13.19725751,.00018064,87.9192,302.3243,103.8582,256.2751,0,U,54140,999,17855,.10474198E-3,.55E-6,0
ONEWEB-0523,2022-138AE,2026-06-30T06:52:56.165952,13.20772248,.00026764,87.9199,271.8306,88.0517,272.0923,0,U,54141,999,18103,.22986911E-3,.106E-5,0
ONEWEB-0524,2022-138AF,2026-06-30T06:38:23.735904,13.20772799,.00028951,87.9198,271.8298,105.1268,255.0185,0,U,54142,999,18103,.34070811E-3,.152E-5,0
ONEWEB-0525,2022-138AG,2026-06-30T17:34:59.416032,13.19726662,.00018395,87.9190,302.2674,112.2078,247.9251,0,U,54143,999,17861,.14611687E-3,.71E-6,0
ONEWEB-0526,2022-138AH,2026-06-30T18:22:44.917824,13.19726878,.0001962,87.9192,302.2614,104.6895,255.4455,0,U,54144,999,17859,.99028058E-4,.53E-6,0
ONEWEB-0529,2022-138AJ,2026-06-30T18:27:19.336320,13.19725006,.00018534,87.9183,302.2689,107.2810,252.8526,0,U,54145,999,17861,-.31512238E-4,0,0
ONEWEB-0531,2022-138AK,2026-06-30T22:40:48.620352,13.20771958,.00028551,87.9192,271.6936,91.9460,268.2000,0,U,54146,999,18112,-.28619376E-3,-.103E-5,0
ONEWEB-0535,2022-138AL,2026-06-30T08:20:00.855168,13.19726268,.00020914,87.9190,302.3380,92.3487,267.7885,0,U,54147,999,17857,.15862793E-3,.76E-6,0
ONEWEB-0536,2022-138AM,2026-06-30T16:54:08.506368,13.20772309,.00030102,87.9183,271.7626,93.9933,266.1544,0,U,54148,999,18108,-.87572673E-4,-.23E-6,0
ONEWEB-0527,2022-166A,2026-06-30T13:47:52.602432,13.21823577,.00020521,87.9243,241.3334,99.6088,260.5278,0,U,54642,999,17330,.18562292E-3,.9E-6,0
ONEWEB-0528,2022-166B,2026-06-30T13:49:04.310112,13.21825586,.0002008,87.9243,241.3360,104.8656,255.2700,0,U,54643,999,17331,-.35534988E-4,-.2E-7,0
ONEWEB-0539,2022-166C,2026-06-30T14:43:33.420000,13.21827743,.00018447,87.9250,241.3007,93.0146,267.1199,0,U,54644,999,17331,.10757842E-3,.57E-6,0
ONEWEB-0540,2022-166D,2026-06-30T03:59:25.274400,13.21827816,.000199,87.9243,241.4189,94.5144,265.6217,0,U,54645,999,17324,.13127323E-3,.67E-6,0
ONEWEB-0542,2022-166E,2026-06-30T22:14:07.260288,13.21825237,.0001844,87.9252,241.2374,92.2417,267.8928,0,U,54646,999,17335,.64667572E-4,.4E-6,0
ONEWEB-0545,2022-166F,2026-06-30T14:07:13.241280,13.21828812,.00017779,87.9245,241.3154,82.4445,277.6890,0,U,54647,999,17327,.18387975E-3,.89E-6,0
ONEWEB-0580,2022-166G,2026-06-30T04:25:50.539008,13.21828619,.00020236,87.9245,241.3954,85.8091,274.3274,0,U,54648,999,17326,.36399962E-3,.163E-5,0
ONEWEB-0582,2022-166H,2026-06-30T21:47:27.622176,13.21827861,.00018449,87.9245,241.2437,86.3135,273.8210,0,U,54649,999,17333,.3447646E-4,.27E-6,0
ONEWEB-0583,2022-166J,2026-06-30T22:04:26.095008,13.21824357,.00019505,87.9245,241.2651,94.6726,265.4631,0,U,54650,999,17334,-.10447063E-3,-.3E-6,0
ONEWEB-0584,2022-166K,2026-06-30T04:23:26.548224,13.21827248,.00020191,87.9245,241.3967,95.2032,264.9332,0,U,54651,999,17323,-.15492109E-2,-.627E-5,0
ONEWEB-0585,2022-166L,2026-06-30T14:02:23.290656,13.21827474,.0002103,87.9246,241.3047,101.5426,258.5945,0,U,54652,999,17329,.12488027E-3,.65E-6,0
ONEWEB-0586,2022-166M,2026-06-30T14:21:46.776384,13.21825389,.00019076,87.9247,241.3270,94.3010,265.8342,0,U,54653,999,17329,.23516237E-3,.11E-5,0
ONEWEB-0587,2022-166N,2026-06-30T21:52:19.573824,13.21824960,.00022464,87.9258,241.2396,105.3825,254.7558,0,U,54654,999,17349,-.65682364E-4,-.14E-6,0
ONEWEB-0589,2022-166P,2026-06-30T14:16:56.143200,13.21825141,.00019312,87.9242,241.3130,72.8133,287.3213,0,U,54655,999,17331,.15468631E-3,.77E-6,0
ONEWEB-0590,2022-166Q,2026-06-30T22:09:03.707712,13.21825138,.00024407,87.9253,241.2394,92.2357,267.9056,0,U,54656,999,17334,.362981E-6,.13E-6,0
ONEWEB-0591,2022-166R,2026-06-30T15:10:13.055520,13.21827401,.00020791,87.9243,241.3104,94.8648,265.2724,0,U,54657,999,17333,.3720287E-5,.15E-6,0
ONEWEB-0592,2022-166S,2026-06-30T13:26:01.339872,13.21828776,.0002033,87.9253,241.3044,96.8290,263.3075,0,U,54658,999,17320,.26741861E-4,.24E-6,0
ONEWEB-0593,2022-166T,2026-06-30T13:57:32.920128,13.21825560,.00018713,87.9246,241.3109,96.1599,263.9748,0,U,54659,999,17331,.14535058E-3,.73E-6,0
ONEWEB-0594,2022-166U,2026-06-30T14:26:35.518272,13.21827686,.00020769,87.9243,241.3230,102.5509,257.5858,0,U,54660,999,17333,.64332806E-3,.279E-5,0
ONEWEB-0595,2022-166V,2026-06-30T04:47:41.513856,13.21824478,.00022178,87.9253,241.3848,102.1357,258.0025,0,U,54661,999,17325,.26367498E-3,.122E-5,0
ONEWEB-0596,2022-166W,2026-06-30T15:05:21.591168,13.21827913,.00021174,87.9247,241.3099,98.5448,261.5926,0,U,54662,999,17331,-.53202235E-4,-.9E-7,0
