[
  {
    "name": "ONEWEB-0522",
    "noradId": "54140",
    "line1": "1 54140U 22138AD  26181.41042532  .00000055  00000+0  10474-3 0  9997",
    "line2": "2 54140  87.9192 302.3243 0001806 103.8582 256.2751 13.19725751178556"
  },
  {
    "name": "ONEWEB-0523",
    "noradId": "54141",
    "line1": "1 54141U 22138AE  26181.28676118  .00000106  00000+0  22987-3 0  9995",
    "line2": "2 54141  87.9199 271.8306 0002676  88.0517 272.0923 13.20772248181031"
  },
  {
    "name": "ONEWEB-0524",
    "noradId": "54142",
    "line1": "1 54142U 22138AF  26181.27666361  .00000152  00000+0  34071-3 0  9992",
    "line2": "2 54142  87.9198 271.8298 0002895 105.1268 255.0185 13.20772799181030"
  },
  {
    "name": "ONEWEB-0525",
    "noradId": "54143",
    "line1": "1 54143U 22138AG  26181.73263213  .00000071  00000+0  14612-3 0  9992",
    "line2": "2 54143  87.9190 302.2674 0001839 112.2078 247.9251 13.19726662178615"
  },
  {
    "name": "ONEWEB-0526",
    "noradId": "54144",
    "line1": "1 54144U 22138AH  26181.76579766  .00000053  00000+0  99028-4 0  9994",
    "line2": "2 54144  87.9192 302.2614 0001962 104.6895 255.4455 13.19726878178597"
  },
  {
    "name": "ONEWEB-0529",
    "noradId": "54145",
    "line1": "1 54145U 22138AJ  26181.76897380  .00000000  00000+0 -31512-4 0  9997",
    "line2": "2 54145  87.9183 302.2689 0001853 107.2810 252.8526 13.19725006178610"
  },
  {
    "name": "ONEWEB-0531",
    "noradId": "54146",
    "line1": "1 54146U 22138AK  26181.94500718 -.00000103  00000+0 -28619-3 0  9992",
    "line2": "2 54146  87.9192 271.6936 0002855  91.9460 268.2000 13.20771958181125"
  },
  {
    "name": "ONEWEB-0535",
    "noradId": "54147",
    "line1": "1 54147U 22138AL  26181.34723212  .00000076  00000+0  15863-3 0  9997",
    "line2": "2 54147  87.9190 302.3380 0002091  92.3487 267.7885 13.19726268178577"
  },
  {
    "name": "ONEWEB-0536",
    "noradId": "54148",
    "line1": "1 54148U 22138AM  26181.70426512 -.00000023  00000+0 -87573-4 0  9993",
    "line2": "2 54148  87.9183 271.7626 0003010  93.9933 266.1544 13.20772309181081"
  },
  {
    "name": "ONEWEB-0527",
    "noradId": "54642",
    "line1": "1 54642U 22166A   26181.57491438  .00000090  00000+0  18562-3 0  9990",
    "line2": "2 54642  87.9243 241.3334 0002052  99.6088 260.5278 13.21823577173308"
  },
  {
    "name": "ONEWEB-0528",
    "noradId": "54643",
    "line1": "1 54643U 22166B   26181.57574433 -.00000002  00000+0 -35535-4 0  9993",
    "line2": "2 54643  87.9243 241.3360 0002008 104.8656 255.2700 13.21825586173313"
  },
  {
    "name": "ONEWEB-0539",
    "noradId": "54644",
    "line1": "1 54644U 22166C   26181.61358125  .00000057  00000+0  10758-3 0  9994",
    "line2": "2 54644  87.9250 241.3007 0001844  93.0146 267.1199 13.21827743173311"
  },
  {
    "name": "ONEWEB-0540",
    "noradId": "54645",
    "line1": "1 54645U 22166D   26181.16626475  .00000067  00000+0  13127-3 0  9995",
    "line2": "2 54645  87.9243 241.4189 0001990  94.5144 265.6217 13.21827816173249"
  },
  {
    "name": "ONEWEB-0542",
    "noradId": "54646",
    "line1": "1 54646U 22166E   26181.92647292  .00000040  00000+0  64668-4 0  9998",
    "line2": "2 54646  87.9252 241.2374 0001844  92.2417 267.8928 13.21825237173350"
  },
  {
    "name": "ONEWEB-0545",
    "noradId": "54647",
    "line1": "1 54647U 22166F   26181.58834770  .00000089  00000+0  18388-3 0  9990",
    "line2": "2 54647  87.9245 241.3154 0001777  82.4445 277.6890 13.21828812173277"
  },
  {
    "name": "ONEWEB-0580",
    "noradId": "54648",
    "line1": "1 54648U 22166G   26181.18461272  .00000163  00000+0  36400-3 0  9998",
    "line2": "2 54648  87.9245 241.3954 0002023  85.8091 274.3274 13.21828619173269"
  },
  {
    "name": "ONEWEB-0582",
    "noradId": "54649",
    "line1": "1 54649U 22166H   26181.90795859  .00000027  00000+0  34476-4 0  9991",
    "line2": "2 54649  87.9245 241.2437 0001844  86.3135 273.8210 13.21827861173330"
  },
  {
    "name": "ONEWEB-0583",
    "noradId": "54650",
    "line1": "1 54650U 22166J   26181.91974647 -.00000030  00000+0 -10447-3 0  9995",
    "line2": "2 54650  87.9245 241.2651 0001950  94.6726 265.4631 13.21824357173348"
  },
  {
    "name": "ONEWEB-0584",
    "noradId": "54651",
    "line1": "1 54651U 22166K   26181.18294616 -.00000627  00000+0 -15492-2 0  9992",
    "line2": "2 54651  87.9245 241.3967 0002019  95.2032 264.9332 13.21827248173236"
  },
  {
    "name": "ONEWEB-0585",
    "noradId": "54652",
    "line1": "1 54652U 22166L   26181.58499179  .00000065  00000+0  12488-3 0  9995",
    "line2": "2 54652  87.9246 241.3047 0002103 101.5426 258.5945 13.21827474173295"
  },
  {
    "name": "ONEWEB-0586",
    "noradId": "54653",
    "line1": "1 54653U 22166M   26181.59845806  .00000110  00000+0  23516-3 0  9994",
    "line2": "2 54653  87.9247 241.3270 0001907  94.3010 265.8342 13.21825389173299"
  },
  {
    "name": "ONEWEB-0587",
    "noradId": "54654",
    "line1": "1 54654U 22166N   26181.91133766 -.00000014  00000+0 -65682-4 0  9992",
    "line2": "2 54654  87.9258 241.2396 0002246 105.3825 254.7558 13.21824960173496"
  },
  {
    "name": "ONEWEB-0589",
    "noradId": "54655",
    "line1": "1 54655U 22166P   26181.59509425  .00000077  00000+0  15469-3 0  9990",
    "line2": "2 54655  87.9242 241.3130 0001931  72.8133 287.3213 13.21825141173310"
  },
  {
    "name": "ONEWEB-0590",
    "noradId": "54656",
    "line1": "1 54656U 22166Q   26181.92295958  .00000013  00000+0  36298-6 0  9997",
    "line2": "2 54656  87.9253 241.2394 0002440  92.2357 267.9056 13.21825138173342"
  },
  {
    "name": "ONEWEB-0591",
    "noradId": "54657",
    "line1": "1 54657U 22166R   26181.63209555  .00000015  00000+0  37203-5 0  9992",
    "line2": "2 54657  87.9243 241.3104 0002079  94.8648 265.2724 13.21827401173338"
  },
  {
    "name": "ONEWEB-0592",
    "noradId": "54658",
    "line1": "1 54658U 22166S   26181.55973773  .00000024  00000+0  26742-4 0  9999",
    "line2": "2 54658  87.9253 241.3044 0002033  96.8290 263.3075 13.21828776173208"
  },
  {
    "name": "ONEWEB-0593",
    "noradId": "54659",
    "line1": "1 54659U 22166T   26181.58163102  .00000073  00000+0  14535-3 0  9990",
    "line2": "2 54659  87.9246 241.3109 0001871  96.1599 263.9748 13.21825560173310"
  },
  {
    "name": "ONEWEB-0594",
    "noradId": "54660",
    "line1": "1 54660U 22166U   26181.60179998  .00000279  00000+0  64333-3 0  9994",
    "line2": "2 54660  87.9243 241.3230 0002076 102.5509 257.5858 13.21827686173339"
  },
  {
    "name": "ONEWEB-0595",
    "noradId": "54661",
    "line1": "1 54661U 22166V   26181.19978604  .00000122  00000+0  26367-3 0  9992",
    "line2": "2 54661  87.9253 241.3848 0002217 102.1357 258.0025 13.21824478173259"
  },
  {
    "name": "ONEWEB-0596",
    "noradId": "54662",
    "line1": "1 54662U 22166W   26181.62872212 -.00000009  00000+0 -53202-4 0  9994",
    "line2": "2 54662  87.9247 241.3099 0002117  98.5448 261.5926 13.21827913173312"
  }
]